[{"OBJECT_NAME":"STARLINK-36397","OBJECT_ID":"2026-014G","EPOCH":"2026-03-09T15:49:12.339840","MEAN_MOTION":15.7524205,"ECCENTRICITY":0.0002422,"INCLINATION":97.2825,"RA_OF_ASC_NODE":313.5125,"ARG_OF_PERICENTER":79.3985,"MEAN_ANOMALY":280.7553,"EPHEMERIS_TYPE":0,"CLASSIFICATION_TYPE":"U","NORAD_CAT_ID":67538,"ELEMENT_SET_NO":999,"REV_AT_EPOCH":856,"BSTAR":0.00098648,"MEAN_MOTION_DOT":0.00149969,"MEAN_MOTION_DDOT":0},{"OBJECT_NAME":"COSMOS 921 DEB","OBJECT_ID":"1977-055C","EPOCH":"2026-03-09T22:42:10.805760","MEAN_MOTION":15.70063735,"ECCENTRICITY":0.00183564,"INCLINATION":75.8082,"RA_OF_ASC_NODE":161.9867,"ARG_OF_PERICENTER":333.9317,"MEAN_ANOMALY":26.0991,"EPHEMERIS_TYPE":0,"CLASSIFICATION_TYPE":"U","NORAD_CAT_ID":39690,"ELEMENT_SET_NO":999,"REV_AT_EPOCH":65481,"BSTAR":0.0010474937,"MEAN_MOTION_DOT":0.0012919,"MEAN_MOTION_DDOT":0}]
